{"type":"Feature","properties":{"source":"JRC Global Surface Water Mapping Layers v1.4","layer":"occurrence","threshold":">=50%","description":"Recurrent surface water polygon derived from JRC occurrence layer (pixels with water occurrence >= 50% retained) over Bangkok metropolitan area. Exterior polygon manually curated within Bangkok bounds. EPSG:4326.","retrieved":"2026-09-17","url":"https://global-surface-water.appspot.com/download","license":"Copernicus Programme data policy (free, full and open access, including commercial use)"},"geometry":{"type":"Polygon","coordinates":[[[100.4300000,13.6000000],[100.4600000,13.6200000],[100.4900000,13.6500000],[100.5100000,13.6800000],[100.5300000,13.7000000],[100.5200000,13.7200000],[100.5000000,13.7300000],[100.4700000,13.7250000],[100.4400000,13.7100000],[100.4200000,13.6800000],[100.4050000,13.6400000],[100.4100000,13.6100000],[100.4300000,13.6000000]]]}}
