{"type":"Feature","properties":{"name":"Chao Phraya River","@id":"relation/227317","natural":"water","waterway":"river","source":"OpenStreetMap Relation 227317","retrieved":"2026-09-17","crs":"EPSG:4326"},"geometry":{"type":"LineString","coordinates":[[100.508989,13.789768],[100.505611,13.786218],[100.502992,13.782272],[100.499498,13.773409],[100.497203,13.769026],[100.494588,13.765527],[100.489176,13.759906],[100.487984,13.757122],[100.48758,13.752461],[100.488696,13.746857],[100.490909,13.743556],[100.493655,13.740837],[100.495795,13.739821],[100.506591,13.736853],[100.509222,13.735446],[100.510133,13.73442],[100.511967,13.730606],[100.512484,13.728372],[100.512632,13.722389],[100.512085,13.719341],[100.510133,13.715046],[100.506063,13.710054],[100.503914,13.708209],[100.49431,13.7027],[100.49221,13.700917],[100.490649,13.698826],[100.489878,13.696615],[100.490553,13.693285],[100.492051,13.691048],[100.498321,13.687368],[100.502023,13.68633],[100.510359,13.685334],[100.514387,13.68429],[100.520594,13.680085],[100.531074,13.671611],[100.535156,13.669708],[100.539152,13.669088],[100.542484,13.669629],[100.546686,13.671666],[100.548319,13.673379],[100.55064,13.677164],[100.551799,13.68087],[100.552539,13.686241],[100.551469,13.700629],[100.55283,13.703878],[100.554952,13.705596],[100.559932,13.7064],[100.562351,13.706034],[100.567867,13.704171],[100.580181,13.699109],[100.583413,13.696863],[100.586095,13.69422],[100.588549,13.690042],[100.589243,13.686874],[100.589125,13.68419],[100.587328,13.679752],[100.579342,13.669198],[100.570471,13.660389],[100.564921,13.656923],[100.558945,13.655714],[100.554688,13.656258],[100.543769,13.660593],[100.539279,13.660587],[100.537326,13.659373],[100.535138,13.65585],[100.534033,13.65218],[100.533945,13.649856],[100.53547,13.640445],[100.54018,13.630431],[100.545491,13.623945],[100.551273,13.618565],[100.559054,13.613817],[100.565306,13.611361],[100.573558,13.610463],[100.581053,13.610757],[100.585816,13.610018],[100.589211,13.60845],[100.591508,13.605361],[100.592494,13.601745],[100.59249,13.597511],[100.590541,13.590516],[100.588245,13.586464],[100.581068,13.577468],[100.577852,13.572299],[100.576698,13.568409],[100.576358,13.562105],[100.578019,13.556891],[100.581508,13.552051],[100.594549,13.542163]]}}