{"type":"Feature","properties":{"name":"Gulf of Thailand coastline","source":"OpenStreetMap natural=coastline ways","retrieved":"2026-09-17","crs":"EPSG:4326"},"geometry":{"type":"LineString","coordinates":[[100.400228,13.493114],[100.400469,13.492377],[100.401776,13.493103],[100.402,13.492304],[100.402542,13.49254],[100.402299,13.493539],[100.403084,13.493739],[100.403252,13.492758],[100.406278,13.493049],[100.406203,13.493539],[100.408506,13.493986],[100.408994,13.493417],[100.409176,13.495664],[100.409772,13.495801],[100.410033,13.494775],[100.410743,13.49521],[100.412144,13.494157],[100.412144,13.494884],[100.413488,13.495229],[100.413582,13.49423],[100.414385,13.494302],[100.41452,13.495937],[100.41588,13.495883],[100.416758,13.494411],[100.41782,13.495218],[100.42151,13.494861],[100.42731,13.495765],[100.427275,13.496177],[100.434513,13.49644],[100.434696,13.498089],[100.43535,13.498133],[100.4362,13.496809],[100.437152,13.496816],[100.437045,13.498234],[100.437796,13.498109],[100.438268,13.499299],[100.44022,13.498401],[100.441808,13.498631],[100.442044,13.49934],[100.448095,13.501281],[100.448739,13.502762],[100.452902,13.503743],[100.453584,13.504882],[100.457113,13.505133],[100.45743,13.503234],[100.457991,13.503746],[100.458373,13.502975],[100.458402,13.500194],[100.459175,13.499929],[100.459563,13.501061],[100.461888,13.501536],[100.462946,13.501268],[100.463342,13.50018],[100.464093,13.502548],[100.464564,13.502564],[100.464693,13.50457],[100.465367,13.504434],[100.465961,13.502493],[100.466966,13.502631],[100.467207,13.503649],[100.467703,13.502548],[100.468623,13.503484],[100.469741,13.503181],[100.471967,13.506327],[100.472842,13.506019],[100.472759,13.502704],[100.473875,13.502996],[100.473735,13.504394],[100.475253,13.504308],[100.475261,13.503346],[100.476471,13.503329],[100.476986,13.502474],[100.477984,13.502338],[100.478199,13.503121],[100.478928,13.502797],[100.478942,13.503474],[100.479673,13.503456],[100.480323,13.502265],[100.48087,13.504195],[100.483164,13.50339],[100.484688,13.503786],[100.484977,13.505247],[100.486394,13.506301],[100.48899,13.503849],[100.490116,13.506999],[100.4909,13.507406],[100.490848,13.508695],[100.492026,13.508189],[100.492594,13.509338],[100.492747,13.507786],[100.49398,13.50794],[100.49525,13.506832],[100.496306,13.508848],[100.497838,13.508594],[100.498314,13.509266],[100.500257,13.508921],[100.503479,13.509429],[100.504777,13.508657],[100.510413,13.509097],[100.510787,13.508069],[100.511517,13.509157],[100.512893,13.508701],[100.51362,13.511024],[100.514369,13.510977],[100.514389,13.509927],[100.517015,13.510194],[100.517332,13.509776],[100.5194,13.510951],[100.51956,13.509927],[100.520129,13.509856],[100.520102,13.510776],[100.520708,13.510831],[100.523097,13.508733],[100.524455,13.509903],[100.526211,13.510116],[100.52639,13.511176],[100.527199,13.511277],[100.528795,13.509219],[100.530891,13.50904],[100.530725,13.506114],[100.532221,13.506314],[100.53166,13.506244],[100.530976,13.508992],[100.532502,13.510409],[100.533123,13.509618],[100.534261,13.509955],[100.534671,13.511675],[100.538538,13.513229],[100.543491,13.513121],[100.543639,13.512676],[100.545074,13.513502],[100.55089,13.514177],[100.552319,13.51326],[100.552388,13.514545],[100.553202,13.513846],[100.553379,13.515046],[100.557499,13.515151],[100.55791,13.513919],[100.560121,13.514457],[100.561471,13.513271],[100.562545,13.513485],[100.565228,13.516062],[100.570367,13.516228],[100.570789,13.516939],[100.571043,13.515698],[100.572611,13.517421],[100.573765,13.515681],[100.584759,13.526055],[100.586602,13.529562],[100.587849,13.533867],[100.587705,13.535615],[100.594549,13.542163],[100.604798,13.544211],[100.609363,13.541506],[100.61989,13.531113]]}}