{"type":"Feature","crs":{"type":"name","properties":{"name":"EPSG:4326"}},"properties":{"name":"Historical Canals (1896 RTSD) - Khlong Phadung Krung Kasem & Ong Ang & Saen Saep"},"geometry":{"type":"LineString","coordinates":[[100.4972,13.7621],[100.5025,13.7562],[100.5048,13.7501],[100.5028,13.7445],[100.5005,13.7418],[100.5038,13.7692],[100.5112,13.7625],[100.5155,13.7548],[100.5168,13.7432],[100.5152,13.7328],[100.5052,13.7538],[100.5150,13.7522],[100.5342,13.7495],[100.5585,13.7468],[100.5850,13.7445],[100.5165,13.7362],[100.5285,13.7302],[100.5422,13.7235],[100.5582,13.7145]]}}
