{"type":"Feature","properties":{"name":"Khlong Saen Saep","source_id":"osm-water","osm_source":"OpenStreetMap waterway=canal","crs":"EPSG:4326"},"geometry":{"type":"LineString","coordinates":[[100.51735,13.753102],[100.52,13.75235],[100.525258,13.749248],[100.527485,13.749597],[100.5337,13.749126],[100.537214,13.749645],[100.541231,13.749327],[100.543976,13.748667],[100.54789,13.748308],[100.559366,13.748386],[100.56476,13.747631],[100.575773,13.745462],[100.585515,13.743219],[100.597042,13.741026],[100.597891,13.741068],[100.600259,13.747321],[100.600638,13.747761],[100.614059,13.760417],[100.615387,13.761147],[100.61855,13.761622]]}}