{"type":"Feature","properties":{"name":"Bangkok flood study extent","source_id":"osm-bangkok-boundary","note":"Bangkok Metropolitan Administration boundary used as the sourced study extent; not a measured flood footprint."},"geometry":{"type":"Polygon","coordinates":[[[100.3278772,13.8041844],[100.3406141,13.6585154],[100.3852531,13.5864001],[100.3902935,13.5694916],[100.4122798,13.5560803],[100.4480689,13.589408],[100.4730266,13.5988658],[100.5169464,13.6377394],[100.5695715,13.7035432],[100.6723358,13.6645188],[100.8850833,13.9427721],[100.5187487,13.8305719],[100.3278772,13.8041844]]]}}
