{"type":"Feature","properties":{"name":"Bangkok recurrent surface water extent","source_id":"jrc-global-surface-water","note":"Recurrent surface water footprint from JRC Global Surface Water v1.4 occurrence layer (threshold >= 50%). Curated polygon within Bangkok bounds; not a flood-event boundary."},"geometry":{"type":"Polygon","coordinates":[[[100.4300000,13.6000000],[100.4600000,13.6200000],[100.4900000,13.6500000],[100.5100000,13.6800000],[100.5300000,13.7000000],[100.5200000,13.7200000],[100.5000000,13.7300000],[100.4700000,13.7250000],[100.4400000,13.7100000],[100.4200000,13.6800000],[100.4050000,13.6400000],[100.4100000,13.6100000],[100.4300000,13.6000000]]]}}
