{"type":"Feature","properties":{"name":"Bangkok sub-5m elevation zone","source_id":"srtm-elevation","note":"Area below 5 m above mean sea level derived from SRTM 1-arc-second DEM (EPSG:4326). Curated polygon; not a surveyed flood boundary."},"geometry":{"type":"Polygon","coordinates":[[[100.4122798,13.5560803],[100.4480689,13.589408],[100.4730266,13.5988658],[100.5169464,13.6377394],[100.5695715,13.7035432],[100.5600000,13.7200000],[100.5400000,13.7350000],[100.5187487,13.7550000],[100.4900000,13.7600000],[100.4600000,13.7500000],[100.4300000,13.7200000],[100.4000000,13.6800000],[100.3950000,13.6400000],[100.3852531,13.5864001],[100.3902935,13.5694916],[100.4122798,13.5560803]]]}}
