{"type":"Feature","properties":{"name":"Bangkok sub-5m elevation zone","source_id":"srtm-elevation","note":"Area <= 5m above mean sea level derived from SRTM/Copernicus DEM (EPSG:4326).","crs":"EPSG:4326"},"geometry":{"type":"Polygon","coordinates":[[[100.41,13.48],[100.43,13.52],[100.45,13.56],[100.47,13.6],[100.49,13.64],[100.51,13.68],[100.53,13.71],[100.55,13.74],[100.58,13.76],[100.61,13.75],[100.615,13.72],[100.6,13.68],[100.58,13.63],[100.56,13.58],[100.55,13.53],[100.53,13.48],[100.48,13.47],[100.41,13.48]]]}}